NIMIQ 2                 
1 27632U 02062A   26191.21649220 -.00000067  00000+0  00000+0 0  9997
2 27632   9.4965  56.6495 0005316  51.7077 148.5326  1.00270164 44415
USA 167                 
1 27691U 03008A   26191.61410667  .00000003  00000+0  00000+0 0  9997
2 27691  11.0054  43.1936 0003239 308.9453  35.7521  1.00270521  7001
USA 169 (MILSTAR-2 4)   
1 27711U 03012A   26191.45600380 -.00000197  00000+0  00000+0 0  9995
2 27711  12.3833  29.6465 0099263  10.1586 204.8576  1.00274010 33184
ASIASAT 4               
1 27718U 03014A   26191.55253083 -.00000217  00000+0  00000+0 0  9992
2 27718   4.7621  75.4534 0002901  34.5205 164.9509  1.00270855 45535
HELLAS-SAT 2            
1 27811U 03020A   26191.42232867 -.00000081  00000+0  00000+0 0  9995
2 27811   7.4094  67.6031 0003427  77.2876 285.4653  1.00271386 43087
THURAYA-2               
1 27825U 03026A   26191.62976683  .00000127  00000+0  00000+0 0  9999
2 27825   8.8750  31.8689 0002645  22.0636 145.3328  1.00271941 84581
OPTUS C1                
1 27831U 03028B   26191.52644404 -.00000149  00000+0  00000+0 0  9995
2 27831   6.9450  69.1236 0005233  38.1760 166.3974  1.00269689 53298
USA 170                 
1 27875U 03040A   26191.27475220  .00000127  00000+0  00000+0 0  9992
2 27875  10.5460  47.7254 0001829  83.5661 280.0283  1.00273741 33234
GALAXY 13 (HORIZONS-1)  
1 27954U 03044A   26191.53719076  .00000141  00000+0  00000+0 0  9999
2 27954   1.4780  83.5671 0002204  21.0209 227.2595  1.00269249 46804
YAMAL 202               
1 28089U 03053A   26191.52800405 -.00000077  00000+0  00000+0 0  9994
2 28089   6.3997  70.6550 0003368  35.9951 175.4295  1.00272239 82939
UFO 11 (USA 174)        
1 28117U 03057A   26191.58186757 -.00000102  00000+0  00000+0 0  9992
2 28117   8.9515  33.7107 0002611  88.5161  91.3444  1.00270310 82682
USA 176 (DSP 22)        
1 28158U 04004A   26191.41452862 -.00000296  00000+0  00000+0 0  9999
2 28158  12.0924  25.8926 0001028 283.6979  78.6292  1.00267528 33170
ABS-4 (MOBISAT-1)       
1 28184U 04007A   26191.25461378  .00000044  00000+0  00000+0 0  9995
2 28184   6.0980  71.7265 0004602  37.9320 331.1124  1.00272153 52577
INTELSAT 10-02          
1 28358U 04022A   26191.56657090 -.00000002  00000+0  00000+0 0  9992
2 28358   0.0515 260.5661 0000380 348.7370 242.1457  1.00269129 80797
ANIK F2                 
1 28378U 04027A   26191.54490413 -.00000043  00000+0  00000+0 0  9996
2 28378   3.3449  79.1325 0003591  30.0244 264.3492  1.00271081 41499
AMC-15                  
1 28446U 04041A   26191.54611748 -.00000078  00000+0  00000+0 0  9992
2 28446   0.0386 296.7712 0002205 188.9904 254.2522  1.00269817 79535
NSS-10                  
1 28526U 05003A   26191.48814674 -.00000248  00000+0  00000+0 0  9995
2 28526   6.5051  70.1663 0002660  34.9777 321.5525  1.00272127 53380
INMARSAT 4-F1           
1 28628U 05009A   26191.38826251  .00000038  00000+0  00000+0 0  9993
2 28628   5.1975  42.7770 0002486  71.5375 131.8793  1.00271535 77909
DIRECTV 8               
1 28659U 05019A   26191.47202666  .00000011  00000+0  00000+0 0  9997
2 28659   0.0150  71.6501 0003043  51.6627 215.9592  1.00270861 77300
GALAXY 28 (G-28)        
1 28702U 05022A   26191.49014008 -.00000193  00000+0  00000+0 0  9995
2 28702   3.3554  78.6447 0002149  35.4139 323.7040  1.00272125 52206
THAICOM 4               
1 28786U 05028A   26191.64587925 -.00000353  00000+0  00000+0 0  9991
2 28786   0.3030  85.5553 0001444   9.4515 185.5700  1.00270334 52482
ANIK F1R                
1 28868U 05036A   26191.62813237 -.00000070  00000+0  00000+0 0  9993
2 28868   4.3696  76.2881 0003762  25.4790 305.6084  1.00271324 46689
SYRACUSE 3A             
1 28885U 05041B   26191.21971689  .00000135  00000+0  00000+0 0  9990
2 28885   4.6991  75.5576 0002728  27.1069 311.1984  1.00271911 75978
INMARSAT 4-F2           
1 28899U 05044A   26191.53475088 -.00000255  00000+0  00000+0 0  9999
2 28899   5.1231  43.6500 0002844  57.9242 162.8884  1.00271823 75750
METEOSAT-9 (MSG-2)      
1 28912U 05049B   26191.21945689  .00000126  00000+0  00000+0 0  9990
2 28912   9.4108  53.9352 0002026 358.4708   0.4202  1.00269823  7228
EUTELSAT 174A           
1 28924U 05052A   26191.53008406  .00000014  00000+0  00000+0 0  9995
2 28924   4.2748  76.2375 0005809  35.6570 181.3444  1.00270093 52565
ECHOSTAR 10             
1 28935U 06003A   26191.54507747 -.00000045  00000+0  00000+0 0  9992
2 28935   0.0402 299.7329 0001175 141.9300 292.8573  1.00270524 74691
SPAINSAT                
1 28945U 06007A   26191.28338865 -.00000207  00000+0  00000+0 0  9991
2 28945   0.6201  86.1442 0004679  21.4674 252.4387  1.00270672 74449
JCSAT-5A                
1 29045U 06010A   26191.59304656 -.00000319  00000+0  00000+0 0  9996
2 29045   1.1670  83.9600 0001702  18.9200 171.1704  1.00271632 74007
ASTRA 1KR               
1 29055U 06012A   26191.57064426  .00000128  00000+0  00000+0 0  9992
2 29055   0.5314  83.2000 0003263  22.9312  46.8051  1.00272580 45932
GALAXY 16 (G-16)        
1 29236U 06023A   26191.47601333 -.00000117  00000+0  00000+0 0  9997
2 29236   0.0341 118.1796 0002461 359.0794 243.5028  1.00271461 73203
EUTELSAT 33F            
1 29270U 06032A   26191.57341760  .00000163  00000+0  00000+0 0  9991
2 29270   1.7192  81.9834 0003437  24.3950  61.6181  1.00269411 47542
