OBJECT_NAME,OBJECT_ID,EPOCH,MEAN_MOTION,ECCENTRICITY,INCLINATION,RA_OF_ASC_NODE,ARG_OF_PERICENTER,MEAN_ANOMALY,EPHEMERIS_TYPE,CLASSIFICATION_TYPE,NORAD_CAT_ID,ELEMENT_SET_NO,REV_AT_EPOCH,BSTAR,MEAN_MOTION_DOT,MEAN_MOTION_DDOT
NIMIQ 2,2002-062A,2026-07-10T05:11:44.926080,1.00270164,.00053166,9.4965,56.6495,51.7077,148.5326,0,U,27632,999,4441,0,-.67E-6,0
USA 167,2003-008A,2026-07-10T14:44:18.816288,1.00270521,.0003239,11.0054,43.1936,308.9453,35.7521,0,U,27691,999,700,0,.3E-7,0
USA 169 (MILSTAR-2 4),2003-012A,2026-07-10T10:56:38.728320,1.00274010,.00992632,12.3833,29.6465,10.1586,204.8576,0,U,27711,999,3318,0,-.197E-5,0
ASIASAT 4,2003-014A,2026-07-10T13:15:38.663712,1.00270855,.00029017,4.7621,75.4534,34.5205,164.9509,0,U,27718,999,4553,0,-.217E-5,0
HELLAS-SAT 2,2003-020A,2026-07-10T10:08:09.197088,1.00271386,.00034271,7.4094,67.6031,77.2876,285.4653,0,U,27811,999,4308,0,-.81E-6,0
THURAYA-2,2003-026A,2026-07-10T15:06:51.854112,1.00271941,.00026459,8.8750,31.8689,22.0636,145.3328,0,U,27825,999,8458,0,.127E-5,0
OPTUS C1,2003-028B,2026-07-10T12:38:04.765056,1.00269689,.00052331,6.9450,69.1236,38.1760,166.3974,0,U,27831,999,5329,0,-.149E-5,0
USA 170,2003-040A,2026-07-10T06:35:38.590080,1.00273741,.00018292,10.5460,47.7254,83.5661,280.0283,0,U,27875,999,3323,0,.127E-5,0
GALAXY 13 (HORIZONS-1),2003-044A,2026-07-10T12:53:33.281664,1.00269249,.00022042,1.4780,83.5671,21.0209,227.2595,0,U,27954,999,4680,0,.141E-5,0
YAMAL 202,2003-053A,2026-07-10T12:40:19.549920,1.00272239,.00033683,6.3997,70.6550,35.9951,175.4295,0,U,28089,999,8293,0,-.77E-6,0
UFO 11 (USA 174),2003-057A,2026-07-10T13:57:53.358048,1.00270310,.00026117,8.9515,33.7107,88.5161,91.3444,0,U,28117,999,8268,0,-.102E-5,0
USA 176 (DSP 22),2004-004A,2026-07-10T09:56:55.272768,1.00267528,.00010283,12.0924,25.8926,283.6979,78.6292,0,U,28158,999,3317,0,-.296E-5,0
ABS-4 (MOBISAT-1),2004-007A,2026-07-10T06:06:38.630592,1.00272153,.00046027,6.0980,71.7265,37.9320,331.1124,0,U,28184,999,5257,0,.44E-6,0
INTELSAT 10-02,2004-022A,2026-07-10T13:35:51.725760,1.00269129,.00003805,0.0515,260.5661,348.7370,242.1457,0,U,28358,999,8079,0,-.2E-7,0
ANIK F2,2004-027A,2026-07-10T13:04:39.716832,1.00271081,.00035918,3.3449,79.1325,30.0244,264.3492,0,U,28378,999,4149,0,-.43E-6,0
AMC-15,2004-041A,2026-07-10T13:06:24.550272,1.00269817,.00022055,0.0386,296.7712,188.9904,254.2522,0,U,28446,999,7953,0,-.78E-6,0
NSS-10,2005-003A,2026-07-10T11:42:55.878336,1.00272127,.00026603,6.5051,70.1663,34.9777,321.5525,0,U,28526,999,5338,0,-.248E-5,0
INMARSAT 4-F1,2005-009A,2026-07-10T09:19:05.880864,1.00271535,.00024865,5.1975,42.7770,71.5375,131.8793,0,U,28628,999,7790,0,.38E-6,0
DIRECTV 8,2005-019A,2026-07-10T11:19:43.103424,1.00270861,.00030431,0.0150,71.6501,51.6627,215.9592,0,U,28659,999,7730,0,.11E-6,0
GALAXY 28 (G-28),2005-022A,2026-07-10T11:45:48.102912,1.00272125,.00021497,3.3554,78.6447,35.4139,323.7040,0,U,28702,999,5220,0,-.193E-5,0
THAICOM 4,2005-028A,2026-07-10T15:30:03.967200,1.00270334,.00014446,0.3030,85.5553,9.4515,185.5700,0,U,28786,999,5248,0,-.353E-5,0
ANIK F1R,2005-036A,2026-07-10T15:04:30.636768,1.00271324,.00037627,4.3696,76.2881,25.4790,305.6084,0,U,28868,999,4668,0,-.7E-6,0
SYRACUSE 3A,2005-041B,2026-07-10T05:16:23.539296,1.00271911,.00027289,4.6991,75.5576,27.1069,311.1984,0,U,28885,999,7597,0,.135E-5,0
INMARSAT 4-F2,2005-044A,2026-07-10T12:50:02.476032,1.00271823,.00028448,5.1231,43.6500,57.9242,162.8884,0,U,28899,999,7575,0,-.255E-5,0
METEOSAT-9 (MSG-2),2005-049B,2026-07-10T05:16:01.075296,1.00269823,.00020263,9.4108,53.9352,358.4708,0.4202,0,U,28912,999,722,0,.126E-5,0
EUTELSAT 174A,2005-052A,2026-07-10T12:43:19.262784,1.00270093,.00058097,4.2748,76.2375,35.6570,181.3444,0,U,28924,999,5256,0,.14E-6,0
ECHOSTAR 10,2006-003A,2026-07-10T13:04:54.693408,1.00270524,.00011758,0.0402,299.7329,141.9300,292.8573,0,U,28935,999,7469,0,-.45E-6,0
SPAINSAT,2006-007A,2026-07-10T06:48:04.779360,1.00270672,.00046795,0.6201,86.1442,21.4674,252.4387,0,U,28945,999,7444,0,-.207E-5,0
JCSAT-5A,2006-010A,2026-07-10T14:13:59.222784,1.00271632,.00017022,1.1670,83.9600,18.9200,171.1704,0,U,29045,999,7400,0,-.319E-5,0
ASTRA 1KR,2006-012A,2026-07-10T13:41:43.664064,1.00272580,.00032634,0.5314,83.2000,22.9312,46.8051,0,U,29055,999,4593,0,.128E-5,0
GALAXY 16 (G-16),2006-023A,2026-07-10T11:25:27.551712,1.00271461,.00024611,0.0341,118.1796,359.0794,243.5028,0,U,29236,999,7320,0,-.117E-5,0
EUTELSAT 33F,2006-032A,2026-07-10T13:45:43.280640,1.00269411,.00034372,1.7192,81.9834,24.3950,61.6181,0,U,29270,999,4754,0,.163E-5,0
